0 STARLINK-32180
1 60374U 24138V   26178.22270887 -.00000433  00000-0 -21889-5 0  9993
2 60374  53.1603 160.4064 0001277  81.6259 278.4887 15.31696973107405
0 STARLINK-35230
1 65681U 25212F   26178.22269874  .00022526  00000-0  67594-3 0  9993
2 65681  53.1573 196.1905 0001093  90.0868 270.0260 15.34394148 44037
0 STARLINK-4464
1 53669U 22105X   26178.22268843  .00022343  00000-0  36254-3 0  9995
2 53669  97.6021  61.6794 0001904  90.5032 269.6438 15.52763501209949
0 FENGYUN 1C DEB
1 30648U 99025APF 26178.22267288  .00006255  00000-0  15809-2 0  9990
2 30648  98.6418 282.7302 0031277 247.0703 175.3970 14.51054620  7148
0 FENGYUN 1C DEB
1 30666U 99025APY 26178.22267012  .00000302  00000-0  21978-3 0  9997
2 30666  98.8416 160.9741 0059898 318.1396  57.7542 14.02764006988653
0 STARLINK-32720
1 62451U 24251V   26178.22261844  .00021159  00000-0  63576-3 0  9993
2 62451  53.1588 186.1655 0001155  75.1137 284.9994 15.34391437 84353
0 ONEWEB-0240
1 48785U 21045U   26178.22253450  .00000072  00000-0  15827-3 0  9996
2 48785  87.9010 257.1850 0002087 109.3691 250.7665 13.15548786245722
0 STARLINK-2526
1 48378U 21038AB  26178.22251079  .00000375  00000-0  23837-4 0  9998
2 48378  53.1580 198.4246 0001189  90.3792 269.7345 15.31705785284009
0 STARLINK-33933
1 63784U 25091K   26178.22246398  .00009541  00000-0  35574-3 0  9991
2 63784  43.0007 147.0075 0000981 270.9530  89.1210 15.27584182 65849
0 STARLINK-3629
1 51774U 22017G   26178.22240493 -.00000331  00000-0 -26936-5 0  9996
2 51774  53.1586 207.2519 0001102  79.3177 280.7938 15.08835136239100
0 ONEWEB-0596
1 54662U 22166W   26178.22238867 -.00000010  00000-0 -54946-4 0  9997
2 54662  87.9248 241.9878 0002139  99.7981 260.3394 13.21826378172862
0 STARLINK-35811
1 66596U 25270J   26178.22237979  .00016788  00000-0  61759-3 0  9994
2 66596  42.9988 157.9321 0001133 257.7954 102.2771 15.27612483 34566
0 STARLINK-34479
1 64365U 25126X   26178.22234509  .00002168  00000-0  18945-3 0  9998
2 64365  70.0008 118.4900 0002880 259.2146 100.8689 14.98332173 57084
0 STARLINK-35453
1 65878U 25223AA  26178.22226676  .00027478  00000-0  82042-3 0  9992
2 65878  53.1571 144.1245 0000883  94.8730 265.2373 15.34437620 40994
0 FENGYUN 1C DEB
1 30689U 99025AQX 26178.22223005  .00000455  00000-0  25724-3 0  9998
2 30689  98.7240 164.0531 0108876 264.9518 114.8927 14.12090747996633
0 YAOGAN-36 04A
1 54746U 22171A   26178.22222367  .00005179  00000-0  22869-3 0  9991
2 54746  34.9883 158.5103 0006519  13.4674 346.6213 15.21103231196653
0 STARLINK-31361
1 58974U 24031K   26178.22218543 -.00000831  00000-0 -15931-4 0  9991
2 58974  53.1608 147.8854 0001643  86.5995 273.5194 15.30190265133304
0 STARLINK-1222
1 45228U 20012BC  26178.22216334  .00032213  00000-0  45039-3 0  9998
2 45228  53.0500 174.9532 0003739  52.6056 307.5295 15.56562276352649
0 IRIDIUM 24
1 25105U 97082B   26178.22214218  .00000353  00000-0  10052-3 0  9997
2 25105  86.3903 281.1695 0008975 279.9382  80.0805 14.42529018497271
0 STARLINK-34692
1 65759U 25216AB  26178.22205069  .00026324  00000-0  78733-3 0  9996
2 65759  53.1582 184.1077 0001041  65.7859 294.3253 15.34406483 43274
0 STARLINK-5775
1 56503U 23065A   26178.22201992 -.00000606  00000-0 -12488-4 0  9997
2 56503  43.0044 313.7089 0001337 271.9842  88.0857 15.27572618173353
0 STARLINK-33576
1 62775U 25015T   26178.22198255  .00027721  00000-0  82863-3 0  9997
2 62775  53.1569 172.0903 0001117 104.3244 255.7883 15.34396600 81215
0 STARLINK-36889
1 68006U 26039W   26178.22196696  .00019457  00000-0  71447-3 0  9997
2 68006  43.0019 150.4646 0000436 245.1799 114.9008 15.27590899 18451
0 IRIDIUM 161
1 43478U 18047C   26178.22196316  .00000302  00000-0  83840-4 0  9992
2 43478  86.4479  84.2758 0002517  81.6979 278.4507 14.43277549426589
0 STARLINK-32551
1 62166U 24225D   26178.22191231  .00006462  00000-0  54874-3 0  9990
2 62166  70.0011 248.2200 0003652 268.2127  91.8614 14.98335251 86288
0 STARLINK-11723
1 64075U 25107M   26178.22191024  .00244965  00000-0  18528-2 0  9998
2 64075  42.9997 158.0942 0001018 153.0671 207.0249 15.70891805 64521
0 STARLINK-4779
1 53864U 22114AY  26178.22189236 -.00000391  00000-0 -64959-5 0  9996
2 53864  53.1588 151.8199 0001346  79.4003 280.7140 15.08830899209654
0 STARLINK-34659
1 64913U 25157K   26178.22187736  .00014607  00000-0  48146-3 0  9997
2 64913  53.1555 196.1940 0001110  88.2058 271.9071 15.31706003 52856
0 KUIPER-00192
1 68575U 26072C   26178.22183347  .00000506  00000-0  95359-4 0  9998
2 68575  51.8985 148.7738 0000787  79.7754 280.3297 14.79929792 12641
0 GLOBALSTAR M051
1 25853U 99037C   26178.22180471 -.00000069  00000-0  73063-4 0  9999
2 25853  51.9763 216.1678 0000693 259.7938 100.2794 11.42205922175248
0 STARLINK-31294
1 58949U 24027U   26178.22178051  .00021084  00000-0  72194-3 0  9991
2 58949  53.1576 161.1753 0001403  79.7702 280.3456 15.30201068134099
0 STARLINK-5463
1 55673U 23021AX  26178.22174560 -.00000251  00000-0 -13274-4 0  9996
2 55673  69.9983 248.1894 0003498 270.9013  89.1745 14.98331685185695
0 KUIPER-00476
1 68874U 26095L   26178.22173756  .00020592  00000-0  60591-3 0  9994
2 68874  51.8717 194.5161 0008887 351.2186   8.8643 15.35011988  9265
0 STARLINK-11312
1 61689U 24195C   26178.22173132 -.00000745  00000-0 -12804-5 0  9994
2 61689  53.1575 206.5494 0001677  23.0543 337.0549 15.69715061 96238
0 QIANFAN-184
1 69402U 26125B   26178.22172778  .00000391  00000-0  18789-3 0  9996
2 69402  88.9954 279.3122 0016222 137.4018 222.8432 14.16885962  3128
0 ONEWEB-0703
1 56724U 23068Q   26178.22172676  .00000070  00000-0  15311-3 0  9991
2 56724  87.9000 257.2040 0001134 108.0424 252.0830 13.15547341150570
0 STARLINK-11108
1 59712U 24088E   26178.22172292 -.00000655  00000-0 -55175-6 0  9994
2 59712  53.1580 146.4518 0000694  72.9482 287.1612 15.69715948123477
0 STARLINK-5300
1 55676U 23021BA  26178.22168617  .00001764  00000-0  15556-3 0  9997
2 55676  69.9996 228.3192 0003643 268.7472  91.3269 14.98335587186185
0 STARLINK-2285
1 48019U 21024AU  26178.22163492  .00017332  00000-0  56859-3 0  9996
2 48019  53.1570 157.2830 0001238  91.2640 268.8503 15.31722560291700
0 STARLINK-5987
1 56455U 23064H   26178.22151691  .00000043  00000-0  11447-4 0  9999
2 56455  69.9983 228.2508 0003613 268.6245  91.4501 14.98331366171658
0 STARLINK-32036
1 60141U 24120G   26178.22150853 -.00000406  00000-0 -89836-6 0  9993
2 60141  53.1594 170.6207 0001191  96.5711 263.5427 15.34385869113236
0 STARLINK-3357
1 51150U 22005AY  26178.22150100  .00090495  00000-0  55177-2 0  9990
2 51150  53.1592 166.8630 0002266 144.5534 215.5608 15.09586362245284
0 STARLINK-33892
1 63783U 25091J   26178.22148579  .00014747  00000-0  54428-3 0  9995
2 63783  42.9988 153.9512 0000624 237.6585 122.4206 15.27583118 65653
0 STARLINK-36338
1 67704U 26025M   26178.22145897  .00027683  00000-0  85679-3 0  9995
2 67704  97.2853 289.2898 0000783 115.6406 244.4917 15.33440416 22799
0 FENGYUN 1C DEB
1 30446U 99025AFH 26178.22141637  .00004850  00000-0  13385-2 0  9991
2 30446  98.6065 268.6171 0032840 220.8196 139.0536 14.46930765 10170
0 STARLINK-33579
1 62764U 25015G   26178.22138295  .00027289  00000-0  88767-3 0  9991
2 62764  53.1554 172.7942 0000991 107.5170 252.5939 15.31708735 81264
0 STARLINK-34786
1 65391U 25191N   26178.22133323  .00001001  00000-0  73222-4 0  9997
2 65391  97.3055  48.1846 0002837  87.9088 272.2464 15.05670529 46755
0 FENGYUN 1C DEB
1 30274U 99025YK  26178.22130309  .00007379  00000-0  17029-2 0  9992
2 30274  99.3109 333.6048 0000953  28.2450 149.4690 14.55584643 10643
0 STARLINK-5521
1 56471U 23064Z   26178.22129618 -.00000066  00000-0  22755-5 0  9992
2 56471  69.9983 208.3809 0003009 268.8344  91.2470 14.98329731172141
0 YAOGAN-30 AD
1 49026U 21065A   26178.22127677  .00002453  00000-0  18190-3 0  9999
2 49026  34.9925 211.9486 0004988 245.8956 114.1231 15.02753369270153
0 STARLINK-6045
1 56462U 23064Q   26178.22120699 -.00000113  00000-0 -16824-5 0  9996
2 56462  69.9991 188.0810 0003757 266.4739  93.5990 14.98328530172641
0 STARLINK-35288
1 65749U 25216R   26178.22120189  .00020559  00000-0  70421-3 0  9994
2 65749  53.1576 184.1127 0001442 130.7683 229.3443 15.30206556 43280
0 KUIPER-00480
1 68876U 26095N   26178.22119427  .00038097  00000-0  99803-3 0  9998
2 68876  51.8742 193.7984 0006227 343.5634  16.5151 15.38309705  9278
0 ONEWEB-0382
1 49308U 21090AF  26178.22113975  .00000006  00000-0 -17712-4 0  9999
2 49308  87.9196 272.4353 0001875  92.3380 267.7968 13.20771105231141
0 STARLINK-32002
1 60200U 24124T   26178.22109769 -.00000614  00000-0 -80289-5 0  9996
2 60200  53.1596 173.1532 0001173  97.1779 262.9356 15.31698993111070
0 STARLINK-31544
1 59399U 24064B   26178.22108008  .00000646  00000-0  32969-4 0  9995
2 59399  43.0005 157.9045 0000928 256.4151 103.6597 15.27584359125977
0 STARLINK-5634
1 55439U 23014BA  26178.22105270  .00000989  00000-0  90663-4 0  9993
2 55439  69.9988 188.3575 0004398 275.7265  84.3392 14.98337295187479
0 STARLINK-4784
1 53839U 22114X   26178.22105221  .00000858  00000-0  71975-4 0  9991
2 53839  53.1589 162.5059 0001185  74.9659 285.1464 15.08835351209509
0 STARLINK-5185
1 54100U 22136BB  26178.22099138 -.00000526  00000-0 -14961-4 0  9992
2 54100  53.1585 201.9688 0001152  86.6397 273.4727 15.08828848203527
0 ONEWEB-0609
1 56070U 23043AA  26178.22094118  .00007061  00000-0  18716-1 0  9999
2 56070  87.8997 257.2127 0002267 108.4639 251.6737 13.15514787157750
0 STARLINK-35135
1 65629U 25210H   26178.22089522  .00031472  00000-0  93883-3 0  9993
2 65629  53.1571 156.7045 0001265  49.4212 310.6900 15.34394945 44527
0 STARLINK-37070
1 68280U 26055U   26178.22086641  .00020903  00000-0  62739-3 0  9999
2 68280  53.1575 168.1379 0001178  98.1860 261.9276 15.34434078 16735
